[{"OBJECT_NAME":"GHGSAT-C5","OBJECT_ID":"2022-057N","EPOCH":"2026-03-09T21:50:12.501024","MEAN_MOTION":15.32921902,"ECCENTRICITY":0.00082696,"INCLINATION":97.6522,"RA_OF_ASC_NODE":212.4963,"ARG_OF_PERICENTER":109.8004,"MEAN_ANOMALY":250.413,"EPHEMERIS_TYPE":0,"CLASSIFICATION_TYPE":"U","NORAD_CAT_ID":52744,"ELEMENT_SET_NO":999,"REV_AT_EPOCH":21032,"BSTAR":0.00029214604,"MEAN_MOTION_DOT":9.218e-5,"MEAN_MOTION_DDOT":0},{"OBJECT_NAME":"STARLINK-35468","OBJECT_ID":"2025-237E","EPOCH":"2026-03-09T04:59:50.630496","MEAN_MOTION":15.30193843,"ECCENTRICITY":0.00011921,"INCLINATION":53.1601,"RA_OF_ASC_NODE":42.0915,"ARG_OF_PERICENTER":74.2458,"MEAN_ANOMALY":285.8674,"EPHEMERIS_TYPE":0,"CLASSIFICATION_TYPE":"U","NORAD_CAT_ID":66118,"ELEMENT_SET_NO":999,"REV_AT_EPOCH":2253,"BSTAR":0.0014561469,"MEAN_MOTION_DOT":0.00043009,"MEAN_MOTION_DDOT":0}]
